{
    "links": {
        "self": "http://www.neowsapp.com/rest/v1/neo/3648738?api_key=iIulBulltgU6a56xZRHN4H3l9WmuAYTsLGpBGhQ2"
    },
    "id": "3648738",
    "neo_reference_id": "3648738",
    "name": "(2013 SF25)",
    "designation": "2013 SF25",
    "nasa_jpl_url": "http://ssd.jpl.nasa.gov/sbdb.cgi?sstr=3648738",
    "absolute_magnitude_h": 23.9,
    "estimated_diameter": {
        "kilometers": {
            "estimated_diameter_min": 0.04411182,
            "estimated_diameter_max": 0.0986370281
        },
        "meters": {
            "estimated_diameter_min": 44.1118199997,
            "estimated_diameter_max": 98.6370281305
        },
        "miles": {
            "estimated_diameter_min": 0.0274098057,
            "estimated_diameter_max": 0.0612901888
        },
        "feet": {
            "estimated_diameter_min": 144.7238235278,
            "estimated_diameter_max": 323.6123073718
        }
    },
    "is_potentially_hazardous_asteroid": false,
    "close_approach_data": [
        {
            "close_approach_date": "2013-09-30",
            "close_approach_date_full": "2013-Sep-30 19:04",
            "epoch_date_close_approach": 1380567840000,
            "relative_velocity": {
                "kilometers_per_second": "19.378143265",
                "kilometers_per_hour": "69761.3157540061",
                "miles_per_hour": "43346.9686694823"
            },
            "miss_distance": {
                "astronomical": "0.0552397329",
                "lunar": "21.4882560981",
                "kilometers": "8263746.381208923",
                "miles": "5134853.8949442174"
            },
            "orbiting_body": "Earth"
        }
    ],
    "orbital_data": {
        "orbit_id": "5",
        "orbit_determination_date": "2017-04-06 08:44:29",
        "first_observation_date": "2013-09-30",
        "last_observation_date": "2013-10-03",
        "data_arc_in_days": 3,
        "observations_used": 21,
        "orbit_uncertainty": "9",
        "minimum_orbit_intersection": ".0430456",
        "jupiter_tisserand_invariant": "4.141",
        "epoch_osculation": "2456567.5",
        "eccentricity": ".3672745807192287",
        "semi_major_axis": "1.578226536179848",
        "inclination": "34.55482768639187",
        "ascending_node_longitude": "5.325086061109169",
        "orbital_period": "724.1898587096482",
        "perihelion_distance": ".9985840468244336",
        "perihelion_argument": "33.90817403454514",
        "aphelion_distance": "2.157869025535262",
        "perihelion_time": "2456596.146607363979",
        "mean_anomaly": "345.759564944188",
        "mean_motion": ".4971072097604946",
        "equinox": "J2000",
        "orbit_class": {
            "orbit_class_type": "APO",
            "orbit_class_description": "Near-Earth asteroid orbits which cross the Earth’s orbit similar to that of 1862 Apollo",
            "orbit_class_range": "a (semi-major axis) > 1.0 AU; q (perihelion) < 1.017 AU"
        }
    },
    "is_sentry_object": false
}